NORAD_CAT_ID,OBJECT_NAME,OBJECT_TYPE,EPOCH,MEAN_MOTION,ECCENTRICITY,INCLINATION,RA_OF_ASC_NODE,ARG_OF_PERICENTER,MEAN_ANOMALY,BSTAR,MEAN_MOTION_DOT,MEAN_MOTION_DDOT,TLE_LINE0,TLE_LINE1,TLE_LINE2,SEMIMAJOR_AXIS,PERIOD,APOGEE,PERIGEE,DECAYED
54065.0,STARLINK-5187,PAYLOAD,2024-04-30 18:32:53,15.08845414,0.0001288,53.2171,147.2609,101.5411,258.5726,0.00011374,1.523e-05,0.0,0 STARLINK-5187,1 54065U 22136Q   24121.77283959  .00001523  00000-0  11374-3 0  9994,2 54065  53.2171 147.2609 0001288 101.5411 258.5726 15.08845414 84504,6917.864,95.437,540.62,538.838,0.0
54065.0,STARLINK-5187,PAYLOAD,2024-05-01 10:26:44,15.08841123,0.0001302,53.2173,144.2873,99.4501,260.6638,4.4873e-05,4.26e-06,0.0,0 STARLINK-5187,1 54065U 22136Q   24122.43524172  .00000426  00000-0  44873-4 0  9995,2 54065  53.2173 144.2873 0001302  99.4501 260.6638 15.08841123 85081,6917.877,95.437,540.643,538.841,0.0
54065.0,STARLINK-5187,PAYLOAD,2024-05-01 18:23:40,15.08844418,0.0001303,53.2173,142.8003,91.6007,268.5135,3.8714e-05,3.28e-06,0.0,0 STARLINK-5187,1 54065U 22136Q   24122.76643954  .00000328  00000-0  38714-4 0  9999,2 54065  53.2173 142.8003 0001303  91.6007 268.5135 15.08844418 84657,6917.867,95.437,540.633,538.83,0.0
54065.0,STARLINK-5187,PAYLOAD,2024-05-02 08:42:08,15.08844444,0.0001185,53.2167,140.1222,89.5932,270.5196,0.00011778,1.587e-05,0.0,0 STARLINK-5187,1 54065U 22136Q   24123.36260081  .00001587  00000-0  11778-3 0  9990,2 54065  53.2167 140.1222 0001185  89.5932 270.5196 15.08844444 84744,6917.867,95.437,540.552,538.912,0.0
54065.0,STARLINK-5187,PAYLOAD,2024-05-02 18:14:27,15.08847267,0.000119,53.2166,138.3376,86.7166,273.3962,0.00011761,1.585e-05,0.0,0 STARLINK-5187,1 54065U 22136Q   24123.76003764  .00001585  00000-0  11761-3 0  9997,2 54065  53.2166 138.3376 0001190  86.7166 273.3962 15.08847267 85284,6917.858,95.437,540.546,538.9,0.0
54065.0,STARLINK-5187,PAYLOAD,2024-05-03 08:32:55,15.08847094,0.0001196,53.2154,135.6609,86.4261,273.6868,0.0001598,2.257e-05,0.0,0 STARLINK-5187,1 54065U 22136Q   24124.35619634  .00002257  00000-0  15980-3 0  9996,2 54065  53.2154 135.6609 0001196  86.4261 273.6868 15.08847094 84891,6917.859,95.437,540.551,538.896,0.0
54065.0,STARLINK-5187,PAYLOAD,2024-05-04 05:12:56,15.08836252,0.0001201,53.2149,131.7948,86.6192,273.4938,-7.5755e-06,-4.08e-06,0.0,0 STARLINK-5187,1 54065U 22136Q   24125.21732213 -.00000408  00000-0 -75755-5 0  9997,2 54065  53.2149 131.7948 0001201  86.6192 273.4938 15.08836252 85509,6917.892,95.438,540.588,538.926,0.0
54065.0,STARLINK-5187,PAYLOAD,2024-05-05 09:49:53,15.08840013,0.0001135,53.2163,126.4421,92.7347,267.3775,3.5977e-05,2.85e-06,0.0,0 STARLINK-5187,1 54065U 22136Q   24126.40964421  .00000285  00000-0  35977-4 0  9999,2 54065  53.2163 126.4421 0001135  92.7347 267.3775 15.08840013 85688,6917.88,95.438,540.531,538.96,0.0
54065.0,STARLINK-5187,PAYLOAD,2024-05-06 06:29:53,15.08841287,0.0001118,53.2161,122.5766,92.978,267.134,0.00019181,2.766e-05,0.0,0 STARLINK-5187,1 54065U 22136Q   24127.27076233  .00002766  00000-0  19181-3 0  9994,2 54065  53.2161 122.5766 0001118  92.9780 267.1340 15.08841287 85331,6917.876,95.437,540.515,538.968,0.0
54065.0,STARLINK-5187,PAYLOAD,2024-05-07 04:45:17,15.08843707,0.0001077,53.216,118.4133,91.4235,268.688,0.00011882,1.604e-05,0.0,0 STARLINK-5187,1 54065U 22136Q   24128.19812370  .00001604  00000-0  11882-3 0  9996,2 54065  53.2160 118.4133 0001077  91.4235 268.6880 15.08843707 85957,6917.869,95.437,540.479,538.989,0.0
54065.0,STARLINK-5187,PAYLOAD,2024-05-07 06:20:40,15.08843819,0.0001073,53.216,118.1152,90.4779,269.6337,0.00011961,1.616e-05,0.0,0 STARLINK-5187,1 54065U 22136Q   24128.26436336  .00001616  00000-0  11961-3 0  9999,2 54065  53.2160 118.1152 0001073  90.4779 269.6337 15.08843819 85483,6917.869,95.437,540.476,538.991,0.0
54065.0,STARLINK-5187,PAYLOAD,2024-05-07 15:52:59,15.08847983,0.0001127,53.2165,116.331,90.6164,269.4958,0.00013938,1.932e-05,0.0,0 STARLINK-5187,1 54065U 22136Q   24128.66179896  .00001932  00000-0  13938-3 0  9995,2 54065  53.2165 116.3310 0001127  90.6164 269.4958 15.08847983 85544,6917.856,95.437,540.501,538.941,0.0
54065.0,STARLINK-5187,PAYLOAD,2024-05-08 04:36:05,15.08836072,0.0001368,53.2177,113.9549,106.2936,253.8206,-1.1708e-05,-4.74e-06,0.0,0 STARLINK-5187,1 54065U 22136Q   24129.19173057 -.00000474  00000-0 -11708-4 0  9993,2 54065  53.2177 113.9549 0001368 106.2936 253.8206 15.08836072 86105,6917.892,95.438,540.704,538.811,0.0
54065.0,STARLINK-5187,PAYLOAD,2024-05-08 09:22:14,15.08835818,0.0001089,53.2159,113.0593,86.4703,273.6414,-1.9292e-05,-5.95e-06,0.0,0 STARLINK-5187,1 54065U 22136Q   24129.39045123 -.00000595  00000-0 -19292-4 0  9997,2 54065  53.2159 113.0593 0001089  86.4703 273.6414 15.08835818 85653,6917.893,95.438,540.512,539.005,0.0
54065.0,STARLINK-5187,PAYLOAD,2024-05-09 04:26:51,15.08844702,0.0001223,53.2166,109.4939,103.1918,256.9211,0.00012019,1.626e-05,0.0,0 STARLINK-5187,1 54065U 22136Q   24130.18532249  .00001626  00000-0  12019-3 0  9999,2 54065  53.2166 109.4939 0001223 103.1918 256.9211 15.08844702 86257,6917.866,95.437,540.577,538.885,0.0
54065.0,STARLINK-5187,PAYLOAD,2024-05-09 09:13:01,15.08847831,0.0001243,53.2157,108.6002,100.2497,259.8635,0.00018711,2.692e-05,0.0,0 STARLINK-5187,1 54065U 22136Q   24130.38404035  .00002692  00000-0  18711-3 0  9991,2 54065  53.2157 108.6002 0001243 100.2497 259.8635 15.08847831 85809,6917.856,95.437,540.581,538.862,0.0
54065.0,STARLINK-5187,PAYLOAD,2024-05-09 15:34:33,15.08854407,0.0001157,53.2158,107.4103,76.5429,283.5692,0.00031735,4.768e-05,0.0,0 STARLINK-5187,1 54065U 22136Q   24130.64899723  .00004768  00000-0  31735-3 0  9999,2 54065  53.2158 107.4103 0001157  76.5429 283.5692 15.08854407 86325,6917.836,95.437,540.502,538.901,0.0
54065.0,STARLINK-5187,PAYLOAD,2024-05-10 04:17:39,15.08839088,0.0001237,53.2152,105.0328,87.5432,272.5702,0.00010161,1.33e-05,0.0,0 STARLINK-5187,1 54065U 22136Q   24131.17892562  .00001330  00000-0  10161-3 0  9994,2 54065  53.2152 105.0328 0001237  87.5432 272.5702 15.08839088 86404,6917.883,95.438,540.604,538.892,0.0
54065.0,STARLINK-5187,PAYLOAD,2024-05-10 07:28:25,15.08846848,0.000128,53.2157,104.4368,87.862,272.2519,0.00028194,4.203e-05,0.0,0 STARLINK-5187,1 54065U 22136Q   24131.31140397  .00004203  00000-0  28194-3 0  9999,2 54065  53.2157 104.4368 0001280  87.8620 272.2519 15.08846848 85949,6917.859,95.437,540.61,538.839,0.0
54065.0,STARLINK-5187,PAYLOAD,2024-05-10 15:25:20,15.08851644,0.000134,53.2162,102.9507,85.9429,274.1716,0.00038781,5.891e-05,0.0,0 STARLINK-5187,1 54065U 22136Q   24131.64260224  .00005891  00000-0  38781-3 0  9994,2 54065  53.2162 102.9507 0001340  85.9429 274.1716 15.08851644 86475,6917.845,95.437,540.637,538.783,0.0
54065.0,STARLINK-5187,PAYLOAD,2024-05-11 04:08:26,15.08848831,0.0001697,53.2165,100.5716,98.2389,261.8796,0.000391,5.942e-05,0.0,0 STARLINK-5187,1 54065U 22136Q   24132.17252351  .00005942  00000-0  39100-3 0  9998,2 54065  53.2165 100.5716 0001697  98.2389 261.8796 15.08848831 86555,6917.853,95.437,540.892,538.544,0.0
54065.0,STARLINK-5187,PAYLOAD,2024-05-11 07:19:11,15.08873896,0.0001437,53.2167,99.9771,117.9326,242.1812,0.0011312,0.00017778,0.0,0 STARLINK-5187,1 54065U 22136Q   24132.30499353  .00017778  00000-0  11312-2 0  9992,2 54065  53.2167  99.9771 0001437 117.9326 242.1812 15.08873896 86573,6917.777,95.435,540.636,538.648,0.0
54065.0,STARLINK-5187,PAYLOAD,2024-05-11 15:16:06,15.08901833,0.0001229,53.2164,98.4908,91.7311,268.3822,0.0017752,0.00028125,0.0,0 STARLINK-5187,1 54065U 22136Q   24132.63618221  .00028125  00000-0  17752-2 0  9997,2 54065  53.2164  98.4908 0001229  91.7311 268.3822 15.08901833 86628,6917.691,95.434,540.407,538.706,0.0
54065.0,STARLINK-5187,PAYLOAD,2024-05-12 03:59:12,15.08773895,0.0001447,53.218,96.112,84.7968,275.3189,-0.0033584,-0.00053246,0.0,0 STARLINK-5187,1 54065U 22136Q   24133.16611951 -.00053246  00000-0 -33584-2 0  9994,2 54065  53.2180  96.1120 0001447  84.7968 275.3189 15.08773895 86707,6918.082,95.442,540.948,538.946,0.0
54065.0,STARLINK-5187,PAYLOAD,2024-05-12 07:09:59,15.08748871,8.02e-05,53.2166,95.5167,81.226,278.8822,-0.0036249,-0.00057374,0.0,0 STARLINK-5187,1 54065U 22136Q   24133.29860793 -.00057374  00000-0 -36249-2 0  9995,2 54065  53.2166  95.5167 0000802  81.2260 278.8822 15.08748871 86726,6918.159,95.443,540.579,539.469,0.0
54065.0,STARLINK-5187,PAYLOAD,2024-05-12 15:06:57,15.08743771,0.000108,53.2172,94.0296,112.923,247.1876,-0.0019803,-0.00031583,0.0,0 STARLINK-5187,1 54065U 22136Q   24133.62983129 -.00031583  00000-0 -19803-2 0  9992,2 54065  53.2172  94.0296 0001080 112.9230 247.1876 15.08743771 86775,6918.175,95.444,540.787,539.292,0.0
54065.0,STARLINK-5187,PAYLOAD,2024-05-13 03:50:03,15.08804496,0.000137,53.2173,91.6504,101.0824,259.0322,0.0022184,0.0003516,0.0,0 STARLINK-5187,1 54065U 22136Q   24134.15976619  .00035160  00000-0  22184-2 0  9996,2 54065  53.2173  91.6504 0001370 101.0824 259.0322 15.08804496 86850,6917.989,95.44,540.802,538.906,0.0
54065.0,STARLINK-5187,PAYLOAD,2024-05-14 13:13:07,15.08883011,0.0001268,53.2174,85.4067,113.2614,246.8512,0.00098402,0.00015426,0.0,0 STARLINK-5187,1 54065U 22136Q   24135.55078329  .00015426  00000-0  98402-3 0  9992,2 54065  53.2174  85.4067 0001268 113.2614 246.8512 15.08883011 86589,6917.749,95.435,540.491,538.737,0.0
54065.0,STARLINK-5187,PAYLOAD,2024-05-15 03:31:35,15.088793,0.0001326,53.2178,82.7314,109.3639,250.7496,0.00058654,9.069e-05,0.0,0 STARLINK-5187,1 54065U 22136Q   24136.14693307  .00009069  00000-0  58654-3 0  9998,2 54065  53.2178  82.7314 0001326 109.3639 250.7496 15.08879300 87151,6917.76,95.435,540.543,538.708,0.0
54065.0,STARLINK-5187,PAYLOAD,2024-05-15 21:00:48,15.08865687,0.0001258,53.2171,79.4593,99.9243,260.1892,0.00049148,7.548e-05,0.0,0 STARLINK-5187,1 54065U 22136Q   24136.87556558  .00007548  00000-0  49148-3 0  9992,2 54065  53.2171  79.4593 0001258  99.9243 260.1892 15.08865687 87265,6917.802,95.436,540.537,538.797,0.0
